FENGYUN 1C DEB          
1 30142U 99025SX  26095.80331612  .00002929  00000+0  15731-2 0  9991
2 30142  99.1167 178.3534 0099172 349.9862   9.9331 14.11261512979076
FENGYUN 1C DEB          
1 30143U 99025SY  26095.47946910  .00001637  00000+0  10331-2 0  9994
2 30143  98.7420 279.2337 0101683 332.9664  47.0020 14.03040344978143
FENGYUN 1C DEB          
1 30144U 99025SZ  26095.59062726  .00000926  00000+0  71211-3 0  9997
2 30144  99.0197  90.2190 0125877 340.8681 138.5483 13.91987954974244
FENGYUN 1C DEB          
1 30145U 99025TA  26095.86512112  .00006609  00000+0  32760-2 0  9996
2 30145  99.2690 214.7828 0092043 185.9737 292.5745 14.15362062978097
FENGYUN 1C DEB          
1 30146U 99025TB  26095.35012925  .00001310  00000+0  10157-2 0  9998
2 30146  98.0343 243.9858 0178908 166.7482 255.1800 13.86805630969925
FENGYUN 1C DEB          
1 30148U 99025TD  26095.40041334  .00001064  00000+0  85902-3 0  9999
2 30148  99.5584 252.4572 0133503 253.4130 161.5711 13.88716410970948
FENGYUN 1C DEB          
1 30150U 99025TF  26095.30999600  .00000654  00000+0  54836-3 0  9995
2 30150  99.0063 232.0422 0146640  29.6439   2.1869 13.86783970970326
FENGYUN 1C DEB          
1 30151U 99025TG  26095.61426659  .00001051  00000+0  87760-3 0  9993
2 30151  99.0622 104.6955 0163073 333.0519 153.9214 13.84705357968218
FENGYUN 1C DEB          
1 30152U 99025TH  26095.54953363  .00003726  00000+0  24056-2 0  9992
2 30152  99.0839 316.9906 0160105 132.8278 228.6469 13.97413090969670
FENGYUN 1C DEB          
1 30153U 99025TJ  26094.95204501  .00001330  00000+0  11625-2 0  9997
2 30153 100.4721 102.1193 0200839  78.0397 344.9875 13.79064261963357
FENGYUN 1C DEB          
1 30154U 99025TK  26095.55733986  .00001984  00000+0  15384-2 0  9990
2 30154  98.4365 131.3065 0179388 245.6852 271.4871 13.86431756965618
FENGYUN 1C DEB          
1 30155U 99025TL  26095.67560329  .00003636  00000+0  31492-2 0  9997
2 30155  99.7457 176.5924 0239924  51.5641 310.6780 13.74606719954290
FENGYUN 1C DEB          
1 30156U 99025TM  26095.86886193  .00002384  00000+0  19685-2 0  9998
2 30156  98.9274  61.6410 0198941 316.7277  95.9616 13.81266185962665
FENGYUN 1C DEB          
1 30157U 99025TN  26095.25004973  .00009520  00000+0  26075-2 0  9990
2 30157  98.7115 200.3790 0036678 209.3253 180.0453 14.46960507997136
FENGYUN 1C DEB          
1 30160U 99025TR  26095.75285797  .00000560  00000+0  73979-3 0  9995
2 30160  98.8966  36.1216 0341064 200.4274 227.6954 13.43111439939448
FENGYUN 1C DEB          
1 30161U 99025TS  26095.49499323  .00002426  00000+0  27880-2 0  9991
2 30161 100.5145  94.2565 0326915 343.1711 142.2846 13.50113466940949
