[{"OBJECT_NAME":"FENGYUN 1C DEB","OBJECT_ID":"1999-025SX","EPOCH":"2026-04-05T19:16:46.512768","MEAN_MOTION":14.11261512,"ECCENTRICITY":0.0099172,"INCLINATION":99.1167,"RA_OF_ASC_NODE":178.3534,"ARG_OF_PERICENTER":349.9862,"MEAN_ANOMALY":9.9331,"EPHEMERIS_TYPE":0,"CLASSIFICATION_TYPE":"U","NORAD_CAT_ID":30142,"ELEMENT_SET_NO":999,"REV_AT_EPOCH":97907,"BSTAR":0.0015731,"MEAN_MOTION_DOT":2.929e-5,"MEAN_MOTION_DDOT":0},{"OBJECT_NAME":"FENGYUN 1C DEB","OBJECT_ID":"1999-025SY","EPOCH":"2026-04-05T11:30:26.130240","MEAN_MOTION":14.03040344,"ECCENTRICITY":0.01016836,"INCLINATION":98.742,"RA_OF_ASC_NODE":279.2337,"ARG_OF_PERICENTER":332.9664,"MEAN_ANOMALY":47.002,"EPHEMERIS_TYPE":0,"CLASSIFICATION_TYPE":"U","NORAD_CAT_ID":30143,"ELEMENT_SET_NO":999,"REV_AT_EPOCH":97814,"BSTAR":0.0010330674,"MEAN_MOTION_DOT":1.637e-5,"MEAN_MOTION_DDOT":0},{"OBJECT_NAME":"FENGYUN 1C DEB","OBJECT_ID":"1999-025SZ","EPOCH":"2026-04-05T14:10:30.195264","MEAN_MOTION":13.91987954,"ECCENTRICITY":0.0125877,"INCLINATION":99.0197,"RA_OF_ASC_NODE":90.219,"ARG_OF_PERICENTER":340.8681,"MEAN_ANOMALY":138.5483,"EPHEMERIS_TYPE":0,"CLASSIFICATION_TYPE":"U","NORAD_CAT_ID":30144,"ELEMENT_SET_NO":999,"REV_AT_EPOCH":97424,"BSTAR":0.00071211,"MEAN_MOTION_DOT":9.26e-6,"MEAN_MOTION_DDOT":0},{"OBJECT_NAME":"FENGYUN 1C DEB","OBJECT_ID":"1999-025TA","EPOCH":"2026-04-05T20:45:46.464768","MEAN_MOTION":14.15362062,"ECCENTRICITY":0.0092043,"INCLINATION":99.269,"RA_OF_ASC_NODE":214.7828,"ARG_OF_PERICENTER":185.9737,"MEAN_ANOMALY":292.5745,"EPHEMERIS_TYPE":0,"CLASSIFICATION_TYPE":"U","NORAD_CAT_ID":30145,"ELEMENT_SET_NO":999,"REV_AT_EPOCH":97809,"BSTAR":0.003276,"MEAN_MOTION_DOT":6.609e-5,"MEAN_MOTION_DDOT":0},{"OBJECT_NAME":"FENGYUN 1C DEB","OBJECT_ID":"1999-025TB","EPOCH":"2026-04-05T08:24:11.167200","MEAN_MOTION":13.8680563,"ECCENTRICITY":0.0178908,"INCLINATION":98.0343,"RA_OF_ASC_NODE":243.9858,"ARG_OF_PERICENTER":166.7482,"MEAN_ANOMALY":255.18,"EPHEMERIS_TYPE":0,"CLASSIFICATION_TYPE":"U","NORAD_CAT_ID":30146,"ELEMENT_SET_NO":999,"REV_AT_EPOCH":96992,"BSTAR":0.0010157417,"MEAN_MOTION_DOT":1.31e-5,"MEAN_MOTION_DDOT":0},{"OBJECT_NAME":"FENGYUN 1C DEB","OBJECT_ID":"1999-025TD","EPOCH":"2026-04-05T09:36:35.712576","MEAN_MOTION":13.8871641,"ECCENTRICITY":0.0133503,"INCLINATION":99.5584,"RA_OF_ASC_NODE":252.4572,"ARG_OF_PERICENTER":253.413,"MEAN_ANOMALY":161.5711,"EPHEMERIS_TYPE":0,"CLASSIFICATION_TYPE":"U","NORAD_CAT_ID":30148,"ELEMENT_SET_NO":999,"REV_AT_EPOCH":97094,"BSTAR":0.00085902427,"MEAN_MOTION_DOT":1.064e-5,"MEAN_MOTION_DDOT":0},{"OBJECT_NAME":"FENGYUN 1C DEB","OBJECT_ID":"1999-025TF","EPOCH":"2026-04-05T07:26:23.654400","MEAN_MOTION":13.8678397,"ECCENTRICITY":0.014664,"INCLINATION":99.0063,"RA_OF_ASC_NODE":232.0422,"ARG_OF_PERICENTER":29.6439,"MEAN_ANOMALY":2.1869,"EPHEMERIS_TYPE":0,"CLASSIFICATION_TYPE":"U","NORAD_CAT_ID":30150,"ELEMENT_SET_NO":999,"REV_AT_EPOCH":97032,"BSTAR":0.00054836,"MEAN_MOTION_DOT":6.54e-6,"MEAN_MOTION_DDOT":0},{"OBJECT_NAME":"FENGYUN 1C DEB","OBJECT_ID":"1999-025TG","EPOCH":"2026-04-05T14:44:32.633376","MEAN_MOTION":13.84705357,"ECCENTRICITY":0.0163073,"INCLINATION":99.0622,"RA_OF_ASC_NODE":104.6955,"ARG_OF_PERICENTER":333.0519,"MEAN_ANOMALY":153.9214,"EPHEMERIS_TYPE":0,"CLASSIFICATION_TYPE":"U","NORAD_CAT_ID":30151,"ELEMENT_SET_NO":999,"REV_AT_EPOCH":96821,"BSTAR":0.0008776,"MEAN_MOTION_DOT":1.051e-5,"MEAN_MOTION_DDOT":0},{"OBJECT_NAME":"FENGYUN 1C DEB","OBJECT_ID":"1999-025TH","EPOCH":"2026-04-05T13:11:19.705632","MEAN_MOTION":13.9741309,"ECCENTRICITY":0.01601053,"INCLINATION":99.0839,"RA_OF_ASC_NODE":316.9906,"ARG_OF_PERICENTER":132.8278,"MEAN_ANOMALY":228.6469,"EPHEMERIS_TYPE":0,"CLASSIFICATION_TYPE":"U","NORAD_CAT_ID":30152,"ELEMENT_SET_NO":999,"REV_AT_EPOCH":96967,"BSTAR":0.0024055904,"MEAN_MOTION_DOT":3.726e-5,"MEAN_MOTION_DDOT":0},{"OBJECT_NAME":"FENGYUN 1C DEB","OBJECT_ID":"1999-025TJ","EPOCH":"2026-04-04T22:50:56.688864","MEAN_MOTION":13.79064261,"ECCENTRICITY":0.0200839,"INCLINATION":100.4721,"RA_OF_ASC_NODE":102.1193,"ARG_OF_PERICENTER":78.0397,"MEAN_ANOMALY":344.9875,"EPHEMERIS_TYPE":0,"CLASSIFICATION_TYPE":"U","NORAD_CAT_ID":30153,"ELEMENT_SET_NO":999,"REV_AT_EPOCH":96335,"BSTAR":0.001162527,"MEAN_MOTION_DOT":1.33e-5,"MEAN_MOTION_DDOT":0},{"OBJECT_NAME":"FENGYUN 1C DEB","OBJECT_ID":"1999-025TK","EPOCH":"2026-04-05T13:22:34.163904","MEAN_MOTION":13.86431756,"ECCENTRICITY":0.01793884,"INCLINATION":98.4365,"RA_OF_ASC_NODE":131.3065,"ARG_OF_PERICENTER":245.6852,"MEAN_ANOMALY":271.4871,"EPHEMERIS_TYPE":0,"CLASSIFICATION_TYPE":"U","NORAD_CAT_ID":30154,"ELEMENT_SET_NO":999,"REV_AT_EPOCH":96561,"BSTAR":0.0015384469,"MEAN_MOTION_DOT":1.984e-5,"MEAN_MOTION_DDOT":0},{"OBJECT_NAME":"FENGYUN 1C DEB","OBJECT_ID":"1999-025TL","EPOCH":"2026-04-05T16:12:52.124256","MEAN_MOTION":13.74606719,"ECCENTRICITY":0.0239924,"INCLINATION":99.7457,"RA_OF_ASC_NODE":176.5924,"ARG_OF_PERICENTER":51.5641,"MEAN_ANOMALY":310.678,"EPHEMERIS_TYPE":0,"CLASSIFICATION_TYPE":"U","NORAD_CAT_ID":30155,"ELEMENT_SET_NO":999,"REV_AT_EPOCH":95429,"BSTAR":0.0031492,"MEAN_MOTION_DOT":3.636e-5,"MEAN_MOTION_DDOT":0},{"OBJECT_NAME":"FENGYUN 1C DEB","OBJECT_ID":"1999-025TM","EPOCH":"2026-04-05T20:51:09.670752","MEAN_MOTION":13.81266185,"ECCENTRICITY":0.0198941,"INCLINATION":98.9274,"RA_OF_ASC_NODE":61.641,"ARG_OF_PERICENTER":316.7277,"MEAN_ANOMALY":95.9616,"EPHEMERIS_TYPE":0,"CLASSIFICATION_TYPE":"U","NORAD_CAT_ID":30156,"ELEMENT_SET_NO":999,"REV_AT_EPOCH":96266,"BSTAR":0.0019685,"MEAN_MOTION_DOT":2.384e-5,"MEAN_MOTION_DDOT":0},{"OBJECT_NAME":"FENGYUN 1C DEB","OBJECT_ID":"1999-025TN","EPOCH":"2026-04-05T06:00:04.296672","MEAN_MOTION":14.46960507,"ECCENTRICITY":0.0036678,"INCLINATION":98.7115,"RA_OF_ASC_NODE":200.379,"ARG_OF_PERICENTER":209.3253,"MEAN_ANOMALY":180.0453,"EPHEMERIS_TYPE":0,"CLASSIFICATION_TYPE":"U","NORAD_CAT_ID":30157,"ELEMENT_SET_NO":999,"REV_AT_EPOCH":99713,"BSTAR":0.0026075,"MEAN_MOTION_DOT":9.52e-5,"MEAN_MOTION_DDOT":0},{"OBJECT_NAME":"FENGYUN 1C DEB","OBJECT_ID":"1999-025TR","EPOCH":"2026-04-05T18:04:06.928608","MEAN_MOTION":13.43111439,"ECCENTRICITY":0.0341064,"INCLINATION":98.8966,"RA_OF_ASC_NODE":36.1216,"ARG_OF_PERICENTER":200.4274,"MEAN_ANOMALY":227.6954,"EPHEMERIS_TYPE":0,"CLASSIFICATION_TYPE":"U","NORAD_CAT_ID":30160,"ELEMENT_SET_NO":999,"REV_AT_EPOCH":93944,"BSTAR":0.00073979,"MEAN_MOTION_DOT":5.6e-6,"MEAN_MOTION_DDOT":0},{"OBJECT_NAME":"FENGYUN 1C DEB","OBJECT_ID":"1999-025TS","EPOCH":"2026-04-05T11:52:47.415072","MEAN_MOTION":13.50113466,"ECCENTRICITY":0.03269154,"INCLINATION":100.5145,"RA_OF_ASC_NODE":94.2565,"ARG_OF_PERICENTER":343.1711,"MEAN_ANOMALY":142.2846,"EPHEMERIS_TYPE":0,"CLASSIFICATION_TYPE":"U","NORAD_CAT_ID":30161,"ELEMENT_SET_NO":999,"REV_AT_EPOCH":94094,"BSTAR":0.002788039,"MEAN_MOTION_DOT":2.426e-5,"MEAN_MOTION_DDOT":0}]
